IRIDIUM 136             
1 42962U 17061H   23200.70224743  .00000370  00000+0  12508-3 0  9992
2 42962  86.3972 109.7315 0002076  78.4305 281.7123 14.34220631302407
